OBJECT_NAME,OBJECT_ID,EPOCH,MEAN_MOTION,ECCENTRICITY,INCLINATION,RA_OF_ASC_NODE,ARG_OF_PERICENTER,MEAN_ANOMALY,EPHEMERIS_TYPE,CLASSIFICATION_TYPE,NORAD_CAT_ID,ELEMENT_SET_NO,REV_AT_EPOCH,BSTAR,MEAN_MOTION_DOT,MEAN_MOTION_DDOT
ONEWEB-0196,2021-031J,2026-07-06T16:52:36.740064,13.14502515,.0002154,87.8971,285.8185,101.1131,259.0241,0,U,48218,999,25079,-.64046E-4,-.11E-6,0
ONEWEB-0183,2021-031K,2026-07-06T16:16:04.084320,13.14501642,.0002022,87.8971,285.8208,93.8397,266.2964,0,U,48219,999,25088,-.51544E-3,-.178E-5,0
ONEWEB-0185,2021-031L,2026-07-06T16:53:44.482848,13.14503835,.0002305,87.8977,285.8108,91.9748,268.1646,0,U,48220,999,25081,.77903E-5,.16E-6,0
ONEWEB-0187,2021-031M,2026-07-06T16:25:00.230016,13.14502531,.0002205,87.8973,285.8290,98.6770,261.4610,0,U,48221,999,25082,-.64164E-3,-.225E-5,0
ONEWEB-0192,2021-031N,2026-07-06T17:31:26.427072,13.14502880,.0002078,87.8970,285.8099,102.5037,257.6325,0,U,48222,999,25074,.51449E-3,.204E-5,0
ONEWEB-0219,2021-031P,2026-07-06T17:01:44.173920,13.14503366,.0002248,87.8977,285.8069,97.3925,262.7460,0,U,48223,999,25094,.31484E-3,.13E-5,0
ONEWEB-0202,2021-031Q,2026-07-06T16:34:20.915904,13.14502689,.0002485,87.8974,285.8234,113.2656,246.8736,0,U,48224,999,25092,-.486E-3,-.167E-5,0
ONEWEB-0204,2021-031R,2026-07-06T17:23:26.373120,13.14436085,.0002725,87.8974,285.8107,86.0410,274.1031,0,U,48225,999,25082,.35664E-1,.13241E-3,0
ONEWEB-0205,2021-031S,2026-07-06T16:48:02.519424,13.14502338,.0002327,87.8978,285.8100,99.2946,260.8447,0,U,48226,999,25083,-.2364E-3,-.75E-6,0
ONEWEB-0206,2021-031T,2026-07-06T16:09:12.537792,13.14501496,.0001843,87.8977,285.8161,100.3889,259.7449,0,U,48227,999,25078,-.25788E-3,-.83E-6,0
ONEWEB-0182,2021-031U,2026-07-06T16:02:22.059168,13.14503409,.0001964,87.8974,285.8241,93.3519,266.7835,0,U,48228,999,25099,-.26488E-5,.12E-6,0
ONEWEB-0186,2021-031V,2026-07-06T16:18:21.276288,13.14502545,.0002122,87.8983,285.8142,99.7033,260.4337,0,U,48229,999,25094,-.53282E-3,-.185E-5,0
ONEWEB-0181,2021-031W,2026-07-06T15:46:22.238112,13.14504023,.0002231,87.8962,285.8443,102.1708,257.9672,0,U,48230,999,25079,.21984E-3,.94E-6,0
ONEWEB-0188,2021-031X,2026-07-06T16:41:10.927104,13.14502276,.0002073,87.8963,285.8366,99.1200,261.0164,0,U,48231,999,25070,-.40035E-3,-.136E-5,0
ONEWEB-0220,2021-031Y,2026-07-06T15:48:39.595104,13.14502384,.0002309,87.8981,285.8196,96.0385,264.1008,0,U,48232,999,25096,.23575E-4,.22E-6,0
ONEWEB-0165,2021-031Z,2026-07-06T20:09:00.099072,13.14503357,.0002381,87.8973,285.7955,105.9066,254.2326,0,U,48233,999,25094,-.70342E-3,-.248E-5,0
ONEWEB-0199,2021-031AA,2026-07-06T16:06:56.136384,13.14501763,.0001838,87.8981,285.8157,99.1676,260.9661,0,U,48234,999,25082,-.19357E-3,-.59E-6,0
ONEWEB-0203,2021-031AB,2026-07-06T15:53:13.485696,13.14500936,.0001962,87.8980,285.8206,105.2709,254.8638,0,U,48235,999,25083,.20746E-3,.9E-6,0
ONEWEB-0197,2021-031AC,2026-07-06T17:06:06.113664,13.14502406,.0002051,87.8968,285.7952,92.6947,267.4418,0,U,48236,999,25075,.44032E-3,.176E-5,0
ONEWEB-0194,2021-031AD,2026-07-06T16:36:37.380384,13.14503974,.000183,87.8974,285.8224,104.8030,255.3302,0,U,48237,999,25092,-.51751E-3,-.179E-5,0
ONEWEB-0193,2021-031AE,2026-07-06T16:59:27.596256,13.14502576,.0001637,87.8972,285.8094,107.6952,252.4356,0,U,48238,999,25087,.25396E-3,.107E-5,0
ONEWEB-0191,2021-031AF,2026-07-06T17:15:27.870048,13.14506234,.0001981,87.8978,285.8070,94.9121,265.2235,0,U,48239,999,25073,.56972E-3,.224E-5,0
ONEWEB-0195,2021-031AG,2026-07-06T16:42:20.093760,13.14503568,.0002386,87.8978,285.8123,104.1737,255.9658,0,U,48240,999,25071,-.33294E-3,-.111E-5,0
ONEWEB-0201,2021-031AH,2026-07-06T20:04:36.755328,13.14502262,.000213,87.8972,285.7987,91.9069,268.2304,0,U,48241,999,25096,-.47969E-3,-.165E-5,0
ONEWEB-0207,2021-031AJ,2026-07-06T15:56:38.690880,13.14504664,.0002125,87.8979,285.8191,92.8616,267.2757,0,U,48242,999,25085,.10246E-3,.51E-6,0
ONEWEB-0208,2021-031AK,2026-07-06T17:20:00.456000,13.14502018,.0002295,87.8971,285.8133,106.0323,254.1060,0,U,48243,999,25087,.60992E-3,.239E-5,0
ONEWEB-0200,2021-031AL,2026-07-06T20:06:42.507072,13.14502396,.0002107,87.8983,285.7785,99.7484,260.3884,0,U,48244,999,25081,-.52839E-3,-.183E-5,0
ONEWEB-0217,2021-031AM,2026-07-06T16:50:19.492800,13.14503088,.0002319,87.8981,285.8100,106.2789,253.8596,0,U,48245,999,25074,-.19971E-3,-.61E-6,0
ONEWEB-0211,2021-045A,2026-07-06T15:38:55.791168,13.16197079,.0002517,87.8997,255.1999,111.4414,248.6985,0,U,48767,999,24700,.82309E-5,.16E-6,0
ONEWEB-0223,2021-045B,2026-07-06T15:56:04.742592,13.15547993,.0002142,87.9000,255.3112,109.7971,250.3391,0,U,48768,999,24696,-.11021E-3,-.29E-6,0
