ONEWEB-0196             
1 48218U 21031J   26187.70320301 -.00000011  00000+0 -64046-4 0  9997
2 48218  87.8971 285.8185 0002154 101.1131 259.0241 13.14502515250795
ONEWEB-0183             
1 48219U 21031K   26187.67782505 -.00000178  00000+0 -51544-3 0  9994
2 48219  87.8971 285.8208 0002022  93.8397 266.2964 13.14501642250889
ONEWEB-0185             
1 48220U 21031L   26187.70398707  .00000016  00000+0  77903-5 0  9995
2 48220  87.8977 285.8108 0002305  91.9748 268.1646 13.14503835250816
ONEWEB-0187             
1 48221U 21031M   26187.68403044 -.00000225  00000+0 -64164-3 0  9991
2 48221  87.8973 285.8290 0002205  98.6770 261.4610 13.14502531250823
ONEWEB-0192             
1 48222U 21031N   26187.73016698  .00000204  00000+0  51449-3 0  9990
2 48222  87.8970 285.8099 0002078 102.5037 257.6325 13.14502880250745
ONEWEB-0219             
1 48223U 21031P   26187.70953905  .00000130  00000+0  31484-3 0  9994
2 48223  87.8977 285.8069 0002248  97.3925 262.7460 13.14503366250945
ONEWEB-0202             
1 48224U 21031Q   26187.69051986 -.00000167  00000+0 -48600-3 0  9991
2 48224  87.8974 285.8234 0002485 113.2656 246.8736 13.14502689250923
ONEWEB-0204             
1 48225U 21031R   26187.72461080  .00013241  00000+0  35664-1 0  9995
2 48225  87.8974 285.8107 0002725  86.0410 274.1031 13.14436085250822
ONEWEB-0205             
1 48226U 21031S   26187.70002916 -.00000075  00000+0 -23640-3 0  9999
2 48226  87.8978 285.8100 0002327  99.2946 260.8447 13.14502338250837
ONEWEB-0206             
1 48227U 21031T   26187.67306178 -.00000083  00000+0 -25788-3 0  9997
2 48227  87.8977 285.8161 0001843 100.3889 259.7449 13.14501496250783
ONEWEB-0182             
1 48228U 21031U   26187.66831087  .00000012  00000+0 -26488-5 0  9990
2 48228  87.8974 285.8241 0001964  93.3519 266.7835 13.14503409250991
ONEWEB-0186             
1 48229U 21031V   26187.67941292 -.00000185  00000+0 -53282-3 0  9994
2 48229  87.8983 285.8142 0002122  99.7033 260.4337 13.14502545250943
ONEWEB-0181             
1 48230U 21031W   26187.65720183  .00000094  00000+0  21984-3 0  9999
2 48230  87.8962 285.8443 0002231 102.1708 257.9672 13.14504023250794
ONEWEB-0188             
1 48231U 21031X   26187.69526536 -.00000136  00000+0 -40035-3 0  9997
2 48231  87.8963 285.8366 0002073  99.1200 261.0164 13.14502276250707
ONEWEB-0220             
1 48232U 21031Y   26187.65879161  .00000022  00000+0  23575-4 0  9992
2 48232  87.8981 285.8196 0002309  96.0385 264.1008 13.14502384250960
ONEWEB-0165             
1 48233U 21031Z   26187.83958448 -.00000248  00000+0 -70342-3 0  9994
2 48233  87.8973 285.7955 0002381 105.9066 254.2326 13.14503357250942
ONEWEB-0199             
1 48234U 21031AA  26187.67148306 -.00000059  00000+0 -19357-3 0  9990
2 48234  87.8981 285.8157 0001838  99.1676 260.9661 13.14501763250826
ONEWEB-0203             
1 48235U 21031AB  26187.66196164  .00000090  00000+0  20746-3 0  9992
2 48235  87.8980 285.8206 0001962 105.2709 254.8638 13.14500936250833
ONEWEB-0197             
1 48236U 21031AC  26187.71257076  .00000176  00000+0  44032-3 0  9998
2 48236  87.8968 285.7952 0002051  92.6947 267.4418 13.14502406250751
ONEWEB-0194             
1 48237U 21031AD  26187.69209931 -.00000179  00000+0 -51751-3 0  9994
2 48237  87.8974 285.8224 0001830 104.8030 255.3302 13.14503974250923
ONEWEB-0193             
1 48238U 21031AE  26187.70795829  .00000107  00000+0  25396-3 0  9998
2 48238  87.8972 285.8094 0001637 107.6952 252.4356 13.14502576250874
ONEWEB-0191             
1 48239U 21031AF  26187.71907257  .00000224  00000+0  56972-3 0  9994
2 48239  87.8978 285.8070 0001981  94.9121 265.2235 13.14506234250731
ONEWEB-0195             
1 48240U 21031AG  26187.69606590 -.00000111  00000+0 -33294-3 0  9998
2 48240  87.8978 285.8123 0002386 104.1737 255.9658 13.14503568250719
ONEWEB-0201             
1 48241U 21031AH  26187.83653652 -.00000165  00000+0 -47969-3 0  9999
2 48241  87.8972 285.7987 0002130  91.9069 268.2304 13.14502262250961
ONEWEB-0207             
1 48242U 21031AJ  26187.66433670  .00000051  00000+0  10246-3 0  9997
2 48242  87.8979 285.8191 0002125  92.8616 267.2757 13.14504664250856
ONEWEB-0208             
1 48243U 21031AK  26187.72222750  .00000239  00000+0  60992-3 0  9991
2 48243  87.8971 285.8133 0002295 106.0323 254.1060 13.14502018250871
ONEWEB-0200             
1 48244U 21031AL  26187.83799198 -.00000183  00000+0 -52839-3 0  9990
2 48244  87.8983 285.7785 0002107  99.7484 260.3884 13.14502396250811
ONEWEB-0217             
1 48245U 21031AM  26187.70161450 -.00000061  00000+0 -19971-3 0  9996
2 48245  87.8981 285.8100 0002319 106.2789 253.8596 13.14503088250747
ONEWEB-0211             
1 48767U 21045A   26187.65203462  .00000016  00000+0  82309-5 0  9999
2 48767  87.8997 255.1999 0002517 111.4414 248.6985 13.16197079247002
ONEWEB-0223             
1 48768U 21045B   26187.66394378 -.00000029  00000+0 -11021-3 0  9995
2 48768  87.9000 255.3112 0002142 109.7971 250.3391 13.15547993246968
